OCEANSAT-2              
1 35931U 09051A   26177.20676911 -.00000225  00000+0 -12793-3 0  9996
2 35931  98.2320 163.1581 0015967 208.9073 151.1211 13.99661670880599
WORLDVIEW-2 (WV-2)      
1 35946U 09055A   26176.93163610 -.00000351  00000+0 -10177-3 0  9996
2 35946  98.4743 250.2596 0004259 180.8572 179.2608 14.37900582876906
SMOS                    
1 36036U 09059A   26177.08495394  .00000243  00000+0  91341-4 0  9996
2 36036  98.4426   4.2895 0001319  88.7084 271.4255 14.39777053874731
YAOGAN-7                
1 36110U 09069A   26177.16048459  .00000481  00000+0  73591-4 0  9996
2 36110  98.0063  62.9717 0024950  13.6727 346.5154 14.78018203890950
TANDEM-X                
1 36605U 10030A   26175.56897165  .00000223  00000+0  13790-4 0  9992
2 36605  97.4453 183.1708 0001789  93.6569 266.4871 15.19149086887769
CARTOSAT-2B             
1 36795U 10035A   26177.20441164  .00000480  00000+0  72631-4 0  9998
2 36795  97.9954 227.6970 0011945 154.8893 205.2901 14.78671245861184
YAOGAN-10               
1 36834U 10038A   26177.24424949  .00002371  00000+0  28171-3 0  9991
2 36834  97.8979 200.5765 0001763  86.5437 339.4708 14.85376819858557
COSMO-SKYMED 4          
1 37216U 10060A   26177.22011815  .00000750  00000+0  10082-3 0  9994
2 37216  97.8891   0.6893 0001496  85.2892 274.8492 14.82153348845904
RESOURCESAT-2           
1 37387U 11015A   26177.16839992  .00000090  00000+0  61151-4 0  9992
2 37387  98.7641 244.5481 0010494 227.0699 132.9599 14.21601872787457
HAIYANG-2A              
1 37781U 11043A   26177.13886397 -.00000200  00000+0 -16689-3 0  9999
2 37781  99.3396 179.6150 0005064  76.4114 283.7598 13.74096568747889
RASAT                   
1 37791U 11044D   26177.24050208  .00000595  00000+0  11161-3 0  9992
2 37791  98.0576 268.4994 0020831 160.0065 254.6760 14.68174462794517
SRMSAT                  
1 37841U 11058D   26177.21996469  .00000369  00000+0  56732-4 0  9991
2 37841  19.9735   4.7963 0011715 303.6491 228.3381 14.11577318759094
PLEIADES 1A             
1 38012U 11076F   26177.18456778  .00000262  00000+0  66123-4 0  9999
2 38012  98.1976 252.1667 0001764  90.8506 349.0344 14.58535822773301
ZIYUAN 1-02C (ZY 1-02C) 
1 38038U 11079A   26177.19214506  .00000371  00000+0  13645-3 0  9993
2 38038  98.4071 244.3125 0005166 284.3530 152.0654 14.38221246760501
ARIRANG-3 (KOMPSAT-3)   
1 38338U 12025B   26177.13395792  .00000407  00000+0  90012-4 0  9993
2 38338  98.1174 134.4396 0006825  87.1579 273.0403 14.62213411752654
EXACTVIEW-1 (ADS-1B)    
1 38709U 12039C   26176.87733314  .00000094  00000+0  60044-4 0  9990
2 38709  98.9785 294.4641 0011581 142.4607 217.7382 14.24986947723944
SPOT 6                  
1 38755U 12047A   26177.18463929  .00000037  00000+0  17890-4 0  9995
2 38755  98.2119 244.3886 0001337  74.9851 285.1496 14.58526811734362
PLEIADES 1B             
1 39019U 12068A   26177.13491338  .00000305  00000+0  75392-4 0  9991
2 39019  98.1947 252.0636 0001712  86.4737 273.6658 14.58565465722155
GOKTURK 2               
1 39030U 12073A   26177.16771588  .00000385  00000+0  63493-4 0  9998
2 39030  97.6822  14.1490 0001253  56.0780 304.0549 14.75550102725837
LANDSAT 8               
1 39084U 13008A   26177.15787130  .00000295  00000+0  75656-4 0  9999
2 39084  98.2299 247.1865 0001356  93.6110 266.5244 14.57100024699202
SARAL                   
1 39086U 13009A   26177.18872662  .00000082  00000+0  46027-4 0  9994
2 39086  98.5558   3.6419 0000684 235.7198 124.3922 14.32857962696892
GAOFEN-1                
1 39150U 13018A   26177.21155663  .00000241  00000+0  41833-4 0  9992
2 39150  97.9094 249.0963 0015853 234.8156 125.1570 14.76544255709574
VNREDSAT 1              
1 39160U 13021B   26177.17383233  .00000440  00000+0  90916-4 0  9995
2 39160  97.9081 230.2454 0001737  84.7596 275.3806 14.64864812701601
ARIRANG-5 (KOMPSAT-5)   
1 39227U 13042A   26177.14482234  .00001306  00000+0  97625-4 0  9996
2 39227  97.6191   3.7188 0005131 101.6100 258.5702 15.04509032705206
SKYSAT-A                
1 39418U 13066C   26177.11955219  .00002722  00000+0  15708-3 0  9993
2 39418  97.3811 226.2320 0019654 284.2691  75.6357 15.13019553689830
DUBAISAT-2              
1 39419U 13066D   26177.21436399  .00003673  00000+0  22806-3 0  9991
2 39419  97.4565 167.1219 0011451  12.8325 347.3194 15.10245087687751
GPM-CORE                
1 39574U 14009C   26177.14413216  .00012302  00000+0  26601-3 0  9992
2 39574  64.9720 278.1251 0011463 255.2366 104.7505 15.44753518699197
SENTINEL-1A             
1 39634U 14016A   26177.14462956 -.00000209  00000+0 -34694-4 0  9999
2 39634  98.1781 184.5464 0001370  83.0517 277.0838 14.59199694651327
KAZEOSAT 1              
1 39731U 14024A   26177.18045432  .00000096  00000+0  42151-4 0  9995
2 39731  98.3206 249.4041 0001219  75.6919 284.4406 14.42082983639857
ALOS-2                  
1 39766U 14029A   26177.13433957  .00000899  00000+0  12723-3 0  9998
2 39766  97.9220 274.1698 0001603  89.8203 270.3193 14.79468940652908
KAZEOSAT 2              
1 40010U 14033A   26177.18893198  .00001236  00000+0  14901-3 0  9995
2 40010  97.5409  16.3254 0007147 295.9935  64.0544 14.85481816650294
