OBJECT_NAME,OBJECT_ID,EPOCH,MEAN_MOTION,ECCENTRICITY,INCLINATION,RA_OF_ASC_NODE,ARG_OF_PERICENTER,MEAN_ANOMALY,EPHEMERIS_TYPE,CLASSIFICATION_TYPE,NORAD_CAT_ID,ELEMENT_SET_NO,REV_AT_EPOCH,BSTAR,MEAN_MOTION_DOT,MEAN_MOTION_DDOT
OCEANSAT-2,2009-051A,2026-06-26T04:57:44.851104,13.99661670,.0015967,98.2320,163.1581,208.9073,151.1211,0,U,35931,999,88059,-.12793E-3,-.225E-5,0
WORLDVIEW-2 (WV-2),2009-055A,2026-06-25T22:21:33.359040,14.37900582,.0004259,98.4743,250.2596,180.8572,179.2608,0,U,35946,999,87690,-.10177E-3,-.351E-5,0
SMOS,2009-059A,2026-06-26T02:02:20.020416,14.39777053,.0001319,98.4426,4.2895,88.7084,271.4255,0,U,36036,999,87473,.91341E-4,.243E-5,0
YAOGAN-7,2009-069A,2026-06-26T03:51:05.868576,14.78018203,.002495,98.0063,62.9717,13.6727,346.5154,0,U,36110,999,89095,.73591E-4,.481E-5,0
TANDEM-X,2010-030A,2026-06-24T13:39:19.150560,15.19149086,.0001789,97.4453,183.1708,93.6569,266.4871,0,U,36605,999,88776,.13790195E-4,.223E-5,0
CARTOSAT-2B,2010-035A,2026-06-26T04:54:21.165696,14.78671245,.0011945,97.9954,227.6970,154.8893,205.2901,0,U,36795,999,86118,.72631E-4,.48E-5,0
YAOGAN-10,2010-038A,2026-06-26T05:51:43.155936,14.85376819,.0001763,97.8979,200.5765,86.5437,339.4708,0,U,36834,999,85855,.28171E-3,.2371E-4,0
COSMO-SKYMED 4,2010-060A,2026-06-26T05:16:58.208160,14.82153348,.0001496,97.8891,0.6893,85.2892,274.8492,0,U,37216,999,84590,.10082E-3,.75E-5,0
RESOURCESAT-2,2011-015A,2026-06-26T04:02:29.753088,14.21601872,.0010494,98.7641,244.5481,227.0699,132.9599,0,U,37387,999,78745,.61151E-4,.9E-6,0
HAIYANG-2A,2011-043A,2026-06-26T03:19:57.847008,13.74096568,.0005064,99.3396,179.6150,76.4114,283.7598,0,U,37781,999,74788,-.16689E-3,-.2E-5,0
RASAT,2011-044D,2026-06-26T05:46:19.379712,14.68174462,.0020831,98.0576,268.4994,160.0065,254.6760,0,U,37791,999,79451,.11161E-3,.595E-5,0
SRMSAT,2011-058D,2026-06-26T05:16:44.949216,14.11577318,.0011715,19.9735,4.7963,303.6491,228.3381,0,U,37841,999,75909,.56732E-4,.369E-5,0
PLEIADES 1A,2011-076F,2026-06-26T04:25:46.656192,14.58535822,.0001764,98.1976,252.1667,90.8506,349.0344,0,U,38012,999,77330,.66123E-4,.262E-5,0
ZIYUAN 1-02C (ZY 1-02C),2011-079A,2026-06-26T04:36:41.333184,14.38221246,.0005166,98.4071,244.3125,284.3530,152.0654,0,U,38038,999,76050,.13645E-3,.371E-5,0
ARIRANG-3 (KOMPSAT-3),2012-025B,2026-06-26T03:12:53.964288,14.62213411,.0006825,98.1174,134.4396,87.1579,273.0403,0,U,38338,999,75265,.90012E-4,.407E-5,0
EXACTVIEW-1 (ADS-1B),2012-039C,2026-06-25T21:03:21.583296,14.24986947,.0011581,98.9785,294.4641,142.4607,217.7382,0,U,38709,999,72394,.60044E-4,.94E-6,0
SPOT 6,2012-047A,2026-06-26T04:25:52.834656,14.58526811,.0001337,98.2119,244.3886,74.9851,285.1496,0,U,38755,999,73436,.1789E-4,.37E-6,0
PLEIADES 1B,2012-068A,2026-06-26T03:14:16.516032,14.58565465,.0001712,98.1947,252.0636,86.4737,273.6658,0,U,39019,999,72215,.75392E-4,.305E-5,0
GOKTURK 2,2012-073A,2026-06-26T04:01:30.652032,14.75550102,.0001253,97.6822,14.1490,56.0780,304.0549,0,U,39030,999,72583,.63493E-4,.385E-5,0
LANDSAT 8,2013-008A,2026-06-26T03:47:20.080320,14.57100024,.0001356,98.2299,247.1865,93.6110,266.5244,0,U,39084,999,69920,.75656E-4,.295E-5,0
SARAL,2013-009A,2026-06-26T04:31:45.979968,14.32857962,.0000684,98.5558,3.6419,235.7198,124.3922,0,U,39086,999,69689,.46027E-4,.82E-6,0
GAOFEN-1,2013-018A,2026-06-26T05:04:38.492832,14.76544255,.0015853,97.9094,249.0963,234.8156,125.1570,0,U,39150,999,70957,.41833E-4,.241E-5,0
VNREDSAT 1,2013-021B,2026-06-26T04:10:19.113312,14.64864812,.0001737,97.9081,230.2454,84.7596,275.3806,0,U,39160,999,70160,.90916E-4,.44E-5,0
ARIRANG-5 (KOMPSAT-5),2013-042A,2026-06-26T03:28:32.650176,15.04509032,.0005131,97.6191,3.7188,101.6100,258.5702,0,U,39227,999,70520,.97625E-4,.1306E-4,0
SKYSAT-A,2013-066C,2026-06-26T02:52:09.309216,15.13019553,.0019654,97.3811,226.2320,284.2691,75.6357,0,U,39418,999,68983,.15708E-3,.2722E-4,0
DUBAISAT-2,2013-066D,2026-06-26T05:08:41.048736,15.10245087,.0011451,97.4565,167.1219,12.8325,347.3194,0,U,39419,999,68775,.22806E-3,.3673E-4,0
GPM-CORE,2014-009C,2026-06-26T03:27:33.018624,15.44753518,.0011463,64.9720,278.1251,255.2366,104.7505,0,U,39574,999,69919,.26601E-3,.12302E-3,0
SENTINEL-1A,2014-016A,2026-06-26T03:28:15.993984,14.59199694,.000137,98.1781,184.5464,83.0517,277.0838,0,U,39634,999,65132,-.34694E-4,-.209E-5,0
KAZEOSAT 1,2014-024A,2026-06-26T04:19:51.253248,14.42082983,.0001219,98.3206,249.4041,75.6919,284.4406,0,U,39731,999,63985,.42151E-4,.96E-6,0
ALOS-2,2014-029A,2026-06-26T03:13:26.938848,14.79468940,.0001603,97.9220,274.1698,89.8203,270.3193,0,U,39766,999,65290,.12723E-3,.899E-5,0
KAZEOSAT 2,2014-033A,2026-06-26T04:32:03.723072,14.85481816,.0007147,97.5409,16.3254,295.9935,64.0544,0,U,40010,999,65029,.14901E-3,.1236E-4,0
